[{"OBJECT_NAME":"ICEYE-X36","OBJECT_ID":"2024-043F","EPOCH":"2026-03-09T21:10:59.920608","MEAN_MOTION":15.05951442,"ECCENTRICITY":0.00048011,"INCLINATION":97.8198,"RA_OF_ASC_NODE":205.3571,"ARG_OF_PERICENTER":299.2298,"MEAN_ANOMALY":60.8448,"EPHEMERIS_TYPE":0,"CLASSIFICATION_TYPE":"U","NORAD_CAT_ID":59103,"ELEMENT_SET_NO":999,"REV_AT_EPOCH":11019,"BSTAR":0.00042378527,"MEAN_MOTION_DOT":6.107e-5,"MEAN_MOTION_DDOT":0},{"OBJECT_NAME":"STARLINK-35076","OBJECT_ID":"2025-194Z","EPOCH":"2026-03-09T13:08:02.056992","MEAN_MOTION":15.05648502,"ECCENTRICITY":0.00018685,"INCLINATION":97.6024,"RA_OF_ASC_NODE":284.2131,"ARG_OF_PERICENTER":77.2963,"MEAN_ANOMALY":282.8472,"EPHEMERIS_TYPE":0,"CLASSIFICATION_TYPE":"U","NORAD_CAT_ID":65457,"ELEMENT_SET_NO":999,"REV_AT_EPOCH":2962,"BSTAR":0.00020624272,"MEAN_MOTION_DOT":2.916e-5,"MEAN_MOTION_DDOT":0}]
